[{"OBJECT_NAME":"INMARSAT 4-F2 (SOUTHPAN/PRN 122)","OBJECT_ID":"2005-044A","EPOCH":"2026-03-06T07:47:40.617024","MEAN_MOTION":1.00271905,"ECCENTRICITY":0.00026991,"INCLINATION":4.9598,"RA_OF_ASC_NODE":43.8038,"ARG_OF_PERICENTER":323.6854,"MEAN_ANOMALY":56.9722,"EPHEMERIS_TYPE":0,"CLASSIFICATION_TYPE":"U","NORAD_CAT_ID":28899,"ELEMENT_SET_NO":999,"REV_AT_EPOCH":7449,"BSTAR":0,"MEAN_MOTION_DOT":-2.64e-6,"MEAN_MOTION_DDOT":0},{"OBJECT_NAME":"GSAT-8 (GAGAN/PRN 127)","OBJECT_ID":"2011-022A","EPOCH":"2026-03-06T19:21:18.440352","MEAN_MOTION":1.00273406,"ECCENTRICITY":0.000714,"INCLINATION":1.8663,"RA_OF_ASC_NODE":83.1264,"ARG_OF_PERICENTER":216.5939,"MEAN_ANOMALY":210.1807,"EPHEMERIS_TYPE":0,"CLASSIFICATION_TYPE":"U","NORAD_CAT_ID":37605,"ELEMENT_SET_NO":999,"REV_AT_EPOCH":5219,"BSTAR":0,"MEAN_MOTION_DOT":8.2e-7,"MEAN_MOTION_DDOT":0},{"OBJECT_NAME":"LUCH 5A (SDCM/PRN 140)","OBJECT_ID":"2011-074B","EPOCH":"2026-03-06T19:53:07.888992","MEAN_MOTION":1.00276045,"ECCENTRICITY":0.0003865,"INCLINATION":8.4932,"RA_OF_ASC_NODE":75.3103,"ARG_OF_PERICENTER":248.4746,"MEAN_ANOMALY":306.1672,"EPHEMERIS_TYPE":0,"CLASSIFICATION_TYPE":"U","NORAD_CAT_ID":37951,"ELEMENT_SET_NO":999,"REV_AT_EPOCH":5202,"BSTAR":0,"MEAN_MOTION_DOT":-4.9e-7,"MEAN_MOTION_DDOT":0},{"OBJECT_NAME":"SES-5 (EGNOS/PRN 136)","OBJECT_ID":"2012-036A","EPOCH":"2026-03-06T05:25:24.259008","MEAN_MOTION":1.00271218,"ECCENTRICITY":0.0001901,"INCLINATION":0.0597,"RA_OF_ASC_NODE":310.4117,"ARG_OF_PERICENTER":31.4449,"MEAN_ANOMALY":268.4077,"EPHEMERIS_TYPE":0,"CLASSIFICATION_TYPE":"U","NORAD_CAT_ID":38652,"ELEMENT_SET_NO":999,"REV_AT_EPOCH":4342,"BSTAR":0,"MEAN_MOTION_DOT":2.8e-7,"MEAN_MOTION_DDOT":0},{"OBJECT_NAME":"GSAT-10 (GAGAN/PRN 128)","OBJECT_ID":"2012-051B","EPOCH":"2026-03-06T19:29:17.674368","MEAN_MOTION":1.00273399,"ECCENTRICITY":0.0004551,"INCLINATION":0.0676,"RA_OF_ASC_NODE":261.9938,"ARG_OF_PERICENTER":177.4731,"MEAN_ANOMALY":100.3598,"EPHEMERIS_TYPE":0,"CLASSIFICATION_TYPE":"U","NORAD_CAT_ID":38779,"ELEMENT_SET_NO":999,"REV_AT_EPOCH":4907,"BSTAR":0,"MEAN_MOTION_DOT":-1.68e-6,"MEAN_MOTION_DDOT":0},{"OBJECT_NAME":"LUCH 5B (SDCM/PRN 125)","OBJECT_ID":"2012-061A","EPOCH":"2026-03-06T18:23:09.498624","MEAN_MOTION":1.00272261,"ECCENTRICITY":0.0003692,"INCLINATION":10.2623,"RA_OF_ASC_NODE":50.8817,"ARG_OF_PERICENTER":226.3927,"MEAN_ANOMALY":146.6875,"EPHEMERIS_TYPE":0,"CLASSIFICATION_TYPE":"U","NORAD_CAT_ID":38977,"ELEMENT_SET_NO":999,"REV_AT_EPOCH":4858,"BSTAR":0,"MEAN_MOTION_DOT":-1.39e-6,"MEAN_MOTION_DDOT":0},{"OBJECT_NAME":"ASTRA 5B (EGNOS/PRN 123)","OBJECT_ID":"2014-011B","EPOCH":"2026-03-06T19:12:19.300032","MEAN_MOTION":1.00272325,"ECCENTRICITY":0.0004015,"INCLINATION":0.086,"RA_OF_ASC_NODE":301.0296,"ARG_OF_PERICENTER":28.7722,"MEAN_ANOMALY":146.2633,"EPHEMERIS_TYPE":0,"CLASSIFICATION_TYPE":"U","NORAD_CAT_ID":39617,"ELEMENT_SET_NO":999,"REV_AT_EPOCH":4364,"BSTAR":0,"MEAN_MOTION_DOT":1.34e-6,"MEAN_MOTION_DDOT":0},{"OBJECT_NAME":"LUCH 5V (SDCM/PRN 141)","OBJECT_ID":"2014-023A","EPOCH":"2026-03-06T14:24:31.896288","MEAN_MOTION":1.0027133,"ECCENTRICITY":0.00030845,"INCLINATION":4.8804,"RA_OF_ASC_NODE":70.7549,"ARG_OF_PERICENTER":285.1366,"MEAN_ANOMALY":119.2902,"EPHEMERIS_TYPE":0,"CLASSIFICATION_TYPE":"U","NORAD_CAT_ID":39727,"ELEMENT_SET_NO":999,"REV_AT_EPOCH":4333,"BSTAR":0,"MEAN_MOTION_DOT":-2.71e-6,"MEAN_MOTION_DDOT":0},{"OBJECT_NAME":"GSAT-15 (GAGAN/PRN 139)","OBJECT_ID":"2015-065A","EPOCH":"2026-03-06T02:25:11.540064","MEAN_MOTION":1.00271608,"ECCENTRICITY":0.00011044,"INCLINATION":0.0855,"RA_OF_ASC_NODE":269.7149,"ARG_OF_PERICENTER":106.5589,"MEAN_ANOMALY":277.3204,"EPHEMERIS_TYPE":0,"CLASSIFICATION_TYPE":"U","NORAD_CAT_ID":41028,"ELEMENT_SET_NO":999,"REV_AT_EPOCH":3776,"BSTAR":0,"MEAN_MOTION_DOT":-2.63e-6,"MEAN_MOTION_DDOT":0},{"OBJECT_NAME":"EUTELSAT 117 WEST B (WAAS/PRN 131)","OBJECT_ID":"2016-038B","EPOCH":"2026-03-05T23:42:37.136448","MEAN_MOTION":1.00273781,"ECCENTRICITY":3.503e-5,"INCLINATION":0.0104,"RA_OF_ASC_NODE":328.8615,"ARG_OF_PERICENTER":267.7539,"MEAN_ANOMALY":165.7653,"EPHEMERIS_TYPE":0,"CLASSIFICATION_TYPE":"U","NORAD_CAT_ID":41589,"ELEMENT_SET_NO":999,"REV_AT_EPOCH":3562,"BSTAR":0,"MEAN_MOTION_DOT":-1.8e-7,"MEAN_MOTION_DDOT":0},{"OBJECT_NAME":"SES-15 (WAAS/PRN 133)","OBJECT_ID":"2017-026A","EPOCH":"2026-03-05T00:25:38.690688","MEAN_MOTION":1.0027106,"ECCENTRICITY":7.138e-5,"INCLINATION":0.0426,"RA_OF_ASC_NODE":307.9199,"ARG_OF_PERICENTER":39.5952,"MEAN_ANOMALY":52.4724,"EPHEMERIS_TYPE":0,"CLASSIFICATION_TYPE":"U","NORAD_CAT_ID":42709,"ELEMENT_SET_NO":999,"REV_AT_EPOCH":638,"BSTAR":0,"MEAN_MOTION_DOT":5.0e-7,"MEAN_MOTION_DDOT":0},{"OBJECT_NAME":"QZS-2 (QZSS/PRN 194)","OBJECT_ID":"2017-028A","EPOCH":"2026-03-05T17:39:05.611104","MEAN_MOTION":1.00261653,"ECCENTRICITY":0.07454866,"INCLINATION":39.5883,"RA_OF_ASC_NODE":244.6601,"ARG_OF_PERICENTER":270.3415,"MEAN_ANOMALY":54.7958,"EPHEMERIS_TYPE":0,"CLASSIFICATION_TYPE":"U","NORAD_CAT_ID":42738,"ELEMENT_SET_NO":999,"REV_AT_EPOCH":658,"BSTAR":0,"MEAN_MOTION_DOT":-1.7e-6,"MEAN_MOTION_DDOT":0},{"OBJECT_NAME":"QZS-3 (QZSS/PRN 199)","OBJECT_ID":"2017-048A","EPOCH":"2026-03-06T18:55:38.813952","MEAN_MOTION":1.00275228,"ECCENTRICITY":0.0002297,"INCLINATION":0.0678,"RA_OF_ASC_NODE":212.5623,"ARG_OF_PERICENTER":148.1009,"MEAN_ANOMALY":214.7581,"EPHEMERIS_TYPE":0,"CLASSIFICATION_TYPE":"U","NORAD_CAT_ID":42917,"ELEMENT_SET_NO":999,"REV_AT_EPOCH":3123,"BSTAR":0,"MEAN_MOTION_DOT":-3.51e-6,"MEAN_MOTION_DDOT":0},{"OBJECT_NAME":"QZS-4 (QZSS/PRN 195)","OBJECT_ID":"2017-062A","EPOCH":"2026-03-05T17:47:25.010880","MEAN_MOTION":1.00280691,"ECCENTRICITY":0.07484947,"INCLINATION":40.1722,"RA_OF_ASC_NODE":344.8064,"ARG_OF_PERICENTER":269.915,"MEAN_ANOMALY":316.0784,"EPHEMERIS_TYPE":0,"CLASSIFICATION_TYPE":"U","NORAD_CAT_ID":42965,"ELEMENT_SET_NO":999,"REV_AT_EPOCH":3076,"BSTAR":0,"MEAN_MOTION_DOT":-3.41e-6,"MEAN_MOTION_DDOT":0},{"OBJECT_NAME":"BEIDOU-3 G1 (PRN 130)","OBJECT_ID":"2018-085A","EPOCH":"2026-03-06T19:45:31.118976","MEAN_MOTION":1.00267936,"ECCENTRICITY":0.0001536,"INCLINATION":2.8167,"RA_OF_ASC_NODE":100.3177,"ARG_OF_PERICENTER":15.9186,"MEAN_ANOMALY":124.6875,"EPHEMERIS_TYPE":0,"CLASSIFICATION_TYPE":"U","NORAD_CAT_ID":43683,"ELEMENT_SET_NO":999,"REV_AT_EPOCH":2703,"BSTAR":0,"MEAN_MOTION_DOT":-2.81e-6,"MEAN_MOTION_DDOT":0},{"OBJECT_NAME":"EUTELSAT 5 WEST B (EGNOS/PRN 121)","OBJECT_ID":"2019-067A","EPOCH":"2026-03-06T19:04:05.092032","MEAN_MOTION":1.00273147,"ECCENTRICITY":0.0003219,"INCLINATION":0.0906,"RA_OF_ASC_NODE":313.055,"ARG_OF_PERICENTER":44.2294,"MEAN_ANOMALY":88.2197,"EPHEMERIS_TYPE":0,"CLASSIFICATION_TYPE":"U","NORAD_CAT_ID":44624,"ELEMENT_SET_NO":999,"REV_AT_EPOCH":2341,"BSTAR":0,"MEAN_MOTION_DOT":-4.6e-7,"MEAN_MOTION_DDOT":0},{"OBJECT_NAME":"BEIDOU-3 G2 (PRN 144)","OBJECT_ID":"2020-017A","EPOCH":"2026-03-06T19:28:25.258080","MEAN_MOTION":1.00272736,"ECCENTRICITY":0.0002728,"INCLINATION":2.6592,"RA_OF_ASC_NODE":45.6301,"ARG_OF_PERICENTER":310.2866,"MEAN_ANOMALY":180.7453,"EPHEMERIS_TYPE":0,"CLASSIFICATION_TYPE":"U","NORAD_CAT_ID":45344,"ELEMENT_SET_NO":999,"REV_AT_EPOCH":2223,"BSTAR":0,"MEAN_MOTION_DOT":-1.43e-6,"MEAN_MOTION_DDOT":0}]
